[
    {
        "name": "Algeria",
        "flag": "assets/images/flags/algeria.png",
        "emoji": "ðŸ‡©ðŸ‡¿",
        "code": "DZ",
        "calling_code": "+213"
    }, {
        "name": "Angola",
        "flag": "assets/images/flags/angola.png",
        "emoji": "ðŸ‡¦ðŸ‡´",
        "code": "AO",
        "calling_code": "+244"
    }, {
        "name": "Benin",
        "flag": "assets/images/flags/benin.png",
        "emoji": "ðŸ‡§ðŸ‡¯",
        "code": "BJ",
        "calling_code": "+229"
    }, {
        "name": "Botswana",
        "flag": "assets/images/flags/botswana.png",
        "emoji": "ðŸ‡§ðŸ‡¼",
        "code": "BW",
        "calling_code": "+267"
    }, {
        "name": "Burkina Faso",
        "flag": "assets/images/flags/burkina_faso.png",
        "emoji": "ðŸ‡§ðŸ‡«",
        "code": "BF",
        "calling_code": "+226"
    }, {
        "name": "Burundi",
        "flag": "assets/images/flags/burundi.png",
        "emoji": "ðŸ‡§ðŸ‡®",
        "code": "BI",
        "calling_code": "+257"
    }, {
        "name": "Cameroon",
        "flag": "assets/images/flags/cameroon.png",
        "emoji": "ðŸ‡¨ðŸ‡²",
        "code": "CM",
        "calling_code": "+237"
    }, {
        "name": "Cape Verde",
        "flag": "assets/images/flags/cape_verde.png",
        "emoji": "ðŸ‡¨ðŸ‡»",
        "code": "CV",
        "calling_code": "+238"
    }, {
        "name": "Central African Republic",
        "flag": "assets/images/flags/central_african_republic.png",
        "emoji": "ðŸ‡¨ðŸ‡«",
        "code": "CF",
        "calling_code": "+236"
    }, {
        "name": "Chad",
        "flag": "assets/images/flags/chad.png",
        "emoji": "ðŸ‡¹ðŸ‡©",
        "code": "TD",
        "calling_code": "+235"
    }, {
        "name": "Comoros",
        "flag": "assets/images/flags/comoros.png",
        "emoji": "ðŸ‡°ðŸ‡²",
        "code": "KM",
        "calling_code": "+269"
    }, {
        "name": "Cote d'Ivoire",
        "flag": "assets/images/flags/cote_divore.png",
        "emoji": "ðŸ‡¨ðŸ‡®",
        "code": "CI",
        "calling_code": "+225"
    }, {
        "name": "Democratic Republic of the Congo",
        "flag": "assets/images/flags/democratic_congo.png",
        "emoji": "ðŸ‡¨ðŸ‡©",
        "code": "CD",
        "calling_code": "+243"
    }, {
        "name": "Djibouti",
        "flag": "assets/images/flags/dibouti.png",
        "emoji": "ðŸ‡©ðŸ‡¯",
        "code": "DJ",
        "calling_code": "+253"
    }, {
        "name": "Egypt",
        "flag": "assets/images/flags/egypt.png",
        "emoji": "ðŸ‡ªðŸ‡¬",
        "code": "EG",
        "calling_code": "+20"
    }, {
        "name": "Equatorial Guinea",
        "flag": "assets/images/flags/equatorial_guinea.png",
        "emoji": "ðŸ‡¬ðŸ‡¶",
        "code": "GQ",
        "calling_code": "+240"
    }, {
        "name": "Eritrea",
        "flag": "assets/images/flags/eritrea.png",
        "emoji": "ðŸ‡ªðŸ‡·",
        "code": "ER",
        "calling_code": "+291"
    }, {
        "name": "Ethiopia",
        "flag": "assets/images/flags/ethiopia.png",
        "emoji": "ðŸ‡ªðŸ‡¹",
        "code": "ET",
        "calling_code": "+251"
    }, {
        "name": "Gabon",
        "flag": "assets/images/flags/gabon.png",
        "emoji": "ðŸ‡¬ðŸ‡¦",
        "code": "GA",
        "calling_code": "+241"
    }, {
        "name": "Gambia",
        "flag": "assets/images/flags/gambia.png",
        "emoji": "ðŸ‡¬ðŸ‡²",
        "code": "GM",
        "calling_code": "+220"
    }, {
        "name": "Ghana",
        "flag": "assets/images/flags/ghana.png",
        "emoji": "ðŸ‡¬ðŸ‡­",
        "code": "GH",
        "calling_code": "+233"
    }, {
        "name": "Guinea",
        "flag": "assets/images/flags/guinea.png",
        "emoji": "ðŸ‡¬ðŸ‡³",
        "code": "GN",
        "calling_code": "+224"
    }, {
        "name": "Guinea-Bissau",
        "flag": "assets/images/flags/guinea-bissau.png",
        "emoji": "ðŸ‡¬ðŸ‡¼",
        "code": "GW",
        "calling_code": "+245"
    }, {
        "name": "Kenya",
        "flag": "assets/images/flags/kenya.png",
        "emoji": "ðŸ‡°ðŸ‡ª",
        "code": "KE",
        "calling_code": "+254"
    }, {
        "name": "Lesotho",
        "flag": "assets/images/flags/lesotho.png",
        "emoji": "ðŸ‡±ðŸ‡¸",
        "code": "LS",
        "calling_code": "+266"
    }, {
        "name": "Liberia",
        "flag": "assets/images/flags/liberia.png",
        "emoji": "ðŸ‡±ðŸ‡·",
        "code": "LR",
        "calling_code": "+231"
    }, {
        "name": "Libya",
        "flag": "assets/images/flags/libya.png",
        "emoji": "ðŸ‡±ðŸ‡¾",
        "code": "LY",
        "calling_code": "+218"
    }, {
        "name": "Madagascar",
        "flag": "assets/images/flags/madagascar.png",
        "emoji": "ðŸ‡²ðŸ‡¬",
        "code": "MG",
        "calling_code": "+261"
    }, {
        "name": "Malawi",
        "flag": "assets/images/flags/malawi.png",
        "emoji": "ðŸ‡²ðŸ‡¼",
        "code": "MW",
        "calling_code": "+265"
    }, {
        "name": "Mali",
        "flag": "assets/images/flags/mali.png",
        "emoji": "ðŸ‡²ðŸ‡±",
        "code": "ML",
        "calling_code": "+223"
    }, {
        "name": "Mauritania",
        "flag": "assets/images/flags/mauritania.png",
        "emoji": "ðŸ‡²ðŸ‡·",
        "code": "MR",
        "calling_code": "+222"
    }, {
        "name": "Mauritius",
        "flag": "assets/images/flags/mauritius.png",
        "emoji": "ðŸ‡²ðŸ‡º",
        "code": "MU",
        "calling_code": "+230"
    }, {
        "name": "Morocco",
        "flag": "assets/images/flags/morocco.png",
        "emoji": "ðŸ‡²ðŸ‡¦",
        "code": "MA",
        "calling_code": "+212"
    }, {
        "name": "Mozambique",
        "flag": "assets/images/flags/mozambique.png",
        "emoji": "ðŸ‡²ðŸ‡¿",
        "code": "MZ",
        "calling_code": "+258"
    }, {
        "name": "Namibia",
        "flag": "assets/images/flags/namibia.png",
        "emoji": "ðŸ‡³ðŸ‡¦",
        "code": "NA",
        "calling_code": "+264"
    }, {
        "name": "Niger",
        "flag": "assets/images/flags/niger.png",
        "emoji": "ðŸ‡³ðŸ‡ª",
        "code": "NE",
        "calling_code": "+227"
    }, {
        "name": "Nigeria",
        "flag": "assets/images/flags/nigeria.png",
        "emoji": "ðŸ‡³ðŸ‡¬",
        "code": "NG",
        "calling_code": "+234"
    }, {
        "name": "Republic of the Congo",
        "flag": "assets/images/flags/congo.png",
        "emoji": "ðŸ‡¨ðŸ‡¬",
        "code": "CG",
        "calling_code": "+242"
    }, {
        "name": "Rwanda",
        "flag": "assets/images/flags/rwanda.png",
        "emoji": "ðŸ‡·ðŸ‡¼",
        "code": "RW",
        "calling_code": "+250"
    }, {
        "name": "Sao Tome and Principe",
        "flag": "assets/images/flags/sao_tome_and_prinicipe.png",
        "emoji": "ðŸ‡¸ðŸ‡¹",
        "code": "ST",
        "calling_code": "+239"
    }, {
        "name": "Senegal",
        "flag": "assets/images/flags/senegal.png",
        "emoji": "ðŸ‡¸ðŸ‡³",
        "code": "SN",
        "calling_code": "+221"
    }, {
        "name": "Seychelles",
        "flag": "assets/images/flags/seychelles.png",
        "emoji": "ðŸ‡¸ðŸ‡¨",
        "code": "SC",
        "calling_code": "+248"
    }, {
        "name": "Sierra Leone",
        "flag": "assets/images/flags/sierra_leone.png",
        "emoji": "ðŸ‡¸ðŸ‡±",
        "code": "SL",
        "calling_code": "+232"
    }, {
        "name": "Somalia",
        "flag": "assets/images/flags/somalia.png",
        "emoji": "ðŸ‡¸ðŸ‡´",
        "code": "SO",
        "calling_code": "+252"
    }, {
        "name": "South Africa",
        "flag": "assets/images/flags/south_africa.png",
        "emoji": "ðŸ‡¿ðŸ‡¦",
        "code": "ZA",
        "calling_code": "+27"
    }, {
        "name": "South Sudan",
        "flag": "assets/images/flags/south_sudan.png",
        "emoji": "ðŸ‡¸ðŸ‡¸",
        "code": "SS",
        "calling_code": "+211"
    }, {
        "name": "Sudan",
        "flag": "assets/images/flags/sudan.png",
        "emoji": "ðŸ‡¸ðŸ‡©",
        "code": "SD",
        "calling_code": "+249"
    }, {
        "name": "Swaziland",
        "flag": "assets/images/flags/swaziland.png",
        "emoji": "ðŸ‡¸ðŸ‡¿",
        "code": "SZ",
        "calling_code": "+268"
    }, {
        "name": "Tanzania",
        "flag": "assets/images/flags/tanzania.png",
        "emoji": "ðŸ‡¹ðŸ‡¿",
        "code": "TZ",
        "calling_code": "+255"
    }, {
        "name": "Togo",
        "flag": "assets/images/flags/togo.png",
        "emoji": "ðŸ‡¹ðŸ‡¬",
        "code": "TG",
        "calling_code": "+228"
    }, {
        "name": "Tunisia",
        "flag": "assets/images/flags/tunisia.png",
        "emoji": "ðŸ‡¹ðŸ‡³",
        "code": "TN",
        "calling_code": "+216"
    }, {
        "name": "Uganda",
        "flag": "assets/images/flags/uganda.png",
        "emoji": "ðŸ‡ºðŸ‡¬",
        "code": "UG",
        "calling_code": "+256"
    }, {
        "name": "Western Sahara",
        "flag": "assets/images/flags/western_sahara.png",
        "emoji": "ðŸ‡ªðŸ‡­",
        "code": "EH",
        "calling_code": "+212"
    }, {
        "name": "Zambia",
        "flag": "assets/images/flags/zambia.png",
        "emoji": "ðŸ‡¿ðŸ‡²",
        "code": "ZM",
        "calling_code": "+260"
    }, {
        "name": "Zimbabwe",
        "flag": "assets/images/flags/zimbabwe.png",
        "emoji": "ðŸ‡¿ðŸ‡¼",
        "code": "ZW",
        "calling_code": "+263"
    }
]
